#dP2019  7 19  0  0  0.00000000      96 __u+U IGS08 FIT  IAC
## 2062 432000.00000000   900.00000000 58683 0.0000000000000
+   92   C06C07C08C09C10C11C12C13C14C16E01E02E03E04E05E07E08
+        E09E11E12E13E14E15E18E19E21E24E25E26E27E30E31E33E36
+        G01G02G03G05G06G07G08G09G10G11G12G13G14G15G16G17G18
+        G19G20G21G22G23G24G25G26G27G28G29G30G31G32J01J02J03
+        R01R02R03R04R05R07R08R09R10R11R12R13R14R15R16R17R18
+        R19R20R21R22R23R24R26  0  0  0  0  0  0  0  0  0  0
++         0  0  0  0  0  0  0  0  0  0  0  0  0  0  0  0  0
++         0  0  0  0  0  0  0  0  0  0  0  0  0  0  0  0  0
++         0  0  0  0  0  0  0  0  0  0  0  0  0  0  0  0  0
++         0  0  0  0  0  0  0  0  0  0  0  0  0  0  0  0  0
++         0  0  0  0  0  0  0  0  0  0  0  0  0  0  0  0  0
++         0  0  0  0  0  0  0  0  0  0  0  0  0  0  0  0  0
%c M  cc GPS ccc cccc cccc cccc cccc ccccc ccccc ccccc ccccc
%c cc cc ccc ccc cccc cccc cccc cccc ccccc ccccc ccccc ccccc
%f  1.2500000  1.025000000  0.00000000000  0.000000000000000
%f  0.0000000  0.000000000  0.00000000000  0.000000000000000
%i    0    0    0    0      0      0      0      0         0
%i    0    0    0    0      0      0      0      0         0
/* INFORMATION & ANALYSIS CENTER (IAC)            FINAL DATA
/* S/V CLOCKS ARE ALIGNED TO GPS & GLONASS TIME RESPECTIVELY
/* USING THE BROADCAST EPHEMERIS                            
/* PCV:IGS14_2056 OL/AL:FES2004  NONE     YN ORB:CoN CLK:CoN
*  2019 07 19 19 45  0.00000000
PC06      0.000000      0.000000      0.000000 999999.999999
PC07      0.000000      0.000000      0.000000 999999.999999
PC08      0.000000      0.000000      0.000000 999999.999999
PC09      0.000000      0.000000      0.000000 999999.999999
PC10      0.000000      0.000000      0.000000 999999.999999
PC11      0.000000      0.000000      0.000000 999999.999999
PC12      0.000000      0.000000      0.000000 999999.999999
PC13      0.000000      0.000000      0.000000 999999.999999
PC14      0.000000      0.000000      0.000000 999999.999999
PC16      0.000000      0.000000      0.000000 999999.999999
PE01   4153.592013 -19922.893981 -21488.021036   -653.646120
PE02  -4098.915241  19972.795816  21459.627928     66.940327
PE03 -13824.836952  26183.115382   -161.346452   -193.169105
PE04   -772.248350 -24328.426430 -16830.478534   -329.829594
PE05 -20452.438989  12688.230450 -17224.784183   -468.094533
PE07  15086.725869   8166.145614  24135.750618   -232.720271
PE08    977.372684  24225.787966  17000.282170   6318.273660
PE09 -15046.172537  -7908.041837 -24221.144849   6370.750104
PE11 -25848.142235  -7017.728062  12573.434691   5646.298377
PE12  -7606.484094 -15570.311410  23991.316293   6287.049193
PE13  25812.865717   6936.379994 -12723.427357    387.115471
PE14  19985.309707   8870.750844 -23868.876004   -652.148994
PE15   8106.301254  15376.753540 -23957.377647    899.496675
PE18 -18824.970970   -467.977821  14784.242532   -747.639791
PE19  14908.943722 -25486.999010   2094.010362     -8.163526
PE21  17567.231199  -1654.538173 -23768.224429   -548.107540
PE24 -20560.833404 -17453.333918  12200.025895   5965.492534
PE25 -17590.110213   1605.136728  23757.342486   1734.395205
PE26  28456.260274  -5452.221766   6045.457406   4318.649415
PE27  20599.211210  17548.704099 -11998.561478    422.610234
PE30  11510.541634  26462.439739   6583.778871   4694.547174
PE31 -11545.779593 -26394.147758  -6760.823239   -469.714065
PE33  14401.043737 -14831.177758  21187.286682   -472.927672
PE36 -28437.269245   5597.316677  -6007.523656    682.378302
PG01  19785.561782  14062.269084 -11348.379410    -71.907870
PG02   1036.569303 -15723.985492  22001.645928   -263.852662
PG03  13030.169196  20061.714569  11593.565957    180.155500
PG05  -1494.597036 -25396.116231   7127.949241     -0.059961
PG06  16486.412648  -8550.389876  19039.370431      1.062728
PG07  25913.201502   6442.449799  -2292.500316    -67.703195
PG08   3709.502376  16154.174102 -20678.633448   -151.823169
PG09  19959.262947  -2184.761520  17351.705612    367.243009
PG10 -12957.341373   9138.870647 -21213.153342    -21.828906
PG11  16294.992172  11524.228997 -17934.272466   -557.105941
PG12 -10101.195032 -22737.015973   9311.045943    222.320159
PG13   7112.830139 -19478.779979 -16673.279822    -53.840399
PG14 -17973.398146  18877.616450   4886.326777    -70.746247
PG15  -6386.770614 -15961.827976 -20430.244960   -299.831734
PG16  -1142.309834  25241.059868   7236.817481    -57.615126
PG17  21293.947177 -15421.931813  -3013.149939     91.585203
PG18  11983.401123  16051.950325 -18002.512111     71.182654
PG19  19804.947498 -17494.709192   2633.121882   -292.047085
PG20 -16690.210735   -552.196937 -20785.162005    526.042794
PG21 -25513.014724  -1500.777989  -6100.923756   -151.704633
PG22  11165.557245  23751.996019   4606.779593   -733.222959
PG23      0.000000      0.000000      0.000000 999999.999999
PG24 -17875.159054 -14590.427262 -13599.915912    -69.021143
PG25 -15519.944946 -11211.659215  18303.514954     -2.072824
PG26  -6568.846572  19971.820213  16103.634556    255.221691
PG27  -8502.730947  20923.298096 -13842.772069   -189.639299
PG28  12959.968183  -8452.350171 -21003.259582    766.217554
PG29 -17896.215381  -1955.234094  19497.187099    147.194361
PG30  23425.896082  -1629.669835 -12570.501895     -2.368740
PG31 -15513.429307   9329.368863  19577.185972     23.189511
PG32 -20581.378304  16290.158367  -3534.636399      3.612736
PJ01      0.000000      0.000000      0.000000 999999.999999
PJ02      0.000000      0.000000      0.000000 999999.999999
PJ03      0.000000      0.000000      0.000000 999999.999999
PR01   9803.777103   6116.579377  22747.837028     46.939496
PR02  12191.585077 -15364.586759  16381.563185    379.126567
PR03   6700.126629 -24636.371994    242.090122     -1.432736
PR04  -2993.887245 -19243.671485 -16462.524884    314.412172
PR05 -10270.226800  -3533.578318 -23066.323592     32.206591
PR07  -6401.047863  24669.019864    430.930599    -23.676913
PR08   2610.802472  19725.986807  16011.852185     16.666129
PR09 -10626.662276   4967.824674  22659.660044     80.958104
PR10   2074.676433  15510.469920  20156.809902     54.777378
PR11  15646.701150  19421.444925   5502.802697    -73.212605
PR12  19510.681751  12102.186263 -11069.331218     45.105267
PR13  12024.029555  -2976.822586 -22313.803783    -26.106239
PR14  -2152.322911 -15674.259872 -19987.148712     41.110790
PR15 -15176.686955 -19492.261339  -6322.125738    103.154505
PR16 -19806.572215 -11662.872887  11161.428241      7.315884
PR17  11221.894554 -12157.545276  19401.613427    244.978748
PR18  -6795.190060  -8948.451685  22901.382180      0.817353
PR19 -21198.067924  -1442.020565  14111.456817    -43.097561
PR20 -23802.290754   7809.505958  -4687.570110   -384.804490
PR21 -10628.497659  12094.015816 -19800.327056    -60.790828
PR22   9800.021729   7821.985831 -22237.321915    -29.177039
PR23  23702.245726  -1811.129940  -9265.473142    241.720741
PR24  22983.110048  -8949.549070   6502.945646   -182.795861
PR26 -24460.039173   7102.642871  -1621.975708    -15.687478
EOF
